NORAD_CAT_ID,OBJECT_NAME,OBJECT_TYPE,EPOCH,MEAN_MOTION,ECCENTRICITY,INCLINATION,RA_OF_ASC_NODE,ARG_OF_PERICENTER,MEAN_ANOMALY,BSTAR,MEAN_MOTION_DOT,MEAN_MOTION_DDOT,TLE_LINE0,TLE_LINE1,TLE_LINE2,SEMIMAJOR_AXIS,PERIOD,APOGEE,PERIGEE,DECAYED
51865.0,STARLINK-3503,PAYLOAD,2022-10-10 04:38:25,15.0884518,0.0001843,53.2159,204.8698,49.1486,310.9666,0.00016097,2.275e-05,0.0,0 STARLINK-3503,1 51865U 22022P   22283.19335501  .00002275  00000-0  16097-3 0  9999,2 51865  53.2159 204.8698 0001843  49.1486 310.9666 15.08845180 34937,6917.865,95.437,541.005,538.455,0.0
51865.0,STARLINK-3503,PAYLOAD,2022-10-10 18:56:53,15.08850285,0.0001798,53.2162,202.1936,48.5341,311.5806,0.00017496,2.498e-05,0.0,0 STARLINK-3503,1 51865U 22022P   22283.78951006  .00002498  00000-0  17496-3 0  9999,2 51865  53.2162 202.1936 0001798  48.5341 311.5806 15.08850285 35025,6917.849,95.437,540.9580000000002,538.47,0.0
51865.0,STARLINK-3503,PAYLOAD,2022-10-11 02:53:50,15.0883561,0.0001583,53.2156,200.7071,47.5151,312.5975,-4.7092e-05,-1.037e-05,0.0,0 STARLINK-3503,1 51865U 22022P   22284.12071960 -.00001037  00000-0 -47092-4 0  9996,2 51865  53.2156 200.7071 0001583  47.5151 312.5975 15.08835610 35070,6917.894,95.438,540.854,538.664,0.0
51865.0,STARLINK-3503,PAYLOAD,2022-10-11 06:04:36,15.08837573,0.0001643,53.2156,200.1118,44.6796,315.4328,-5.056399999999999e-07,-2.96e-06,0.0,0 STARLINK-3503,1 51865U 22022P   22284.25319862 -.00000296  00000-0 -50564-6 0  9992,2 51865  53.2156 200.1118 0001643  44.6796 315.4328 15.08837573 35092,6917.888000000001,95.438,540.889,538.616,0.0
51865.0,STARLINK-3503,PAYLOAD,2022-10-11 20:23:05,15.08831527,0.0001703,53.2164,197.4346,47.3909,312.7227,-2.7504e-05,-7.26e-06,0.0,0 STARLINK-3503,1 51865U 22022P   22284.84936720 -.00000726  00000-0 -27504-4 0  9999,2 51865  53.2164 197.4346 0001703  47.3909 312.7227 15.08831527 35186,6917.906,95.438,540.9490000000002,538.5930000000002,0.0
51865.0,STARLINK-3503,PAYLOAD,2022-10-12 10:41:34,15.08826521,0.0001861,53.2166,194.7589,52.1271,307.9889,-5.2955e-05,-1.13e-05,0.0,0 STARLINK-3503,1 51865U 22022P   22285.44553339 -.00001130  00000-0 -52955-4 0  9995,2 51865  53.2166 194.7589 0001861  52.1271 307.9889 15.08826521 35276,6917.922,95.438,541.0740000000002,538.499,0.0
51865.0,STARLINK-3503,PAYLOAD,2022-10-12 20:13:52,15.08822764,0.000134,53.2163,192.9742,48.5814,311.5293,3.8756e-05,3.29e-06,0.0,0 STARLINK-3503,1 51865U 22022P   22285.84297451  .00000329  00000-0  38756-4 0  9999,2 51865  53.2163 192.9742 0001340  48.5814 311.5293 15.08822764 35330,6917.933000000001,95.439,540.725,538.871,0.0
51865.0,STARLINK-3503,PAYLOAD,2022-10-13 10:32:20,15.08836973,0.0001425,53.2159,190.2991,45.0442,315.0665,0.0001468,2.049e-05,0.0,0 STARLINK-3503,1 51865U 22022P   22286.43912794  .00002049  00000-0  14680-3 0  9999,2 51865  53.2159 190.2991 0001425  45.0442 315.0665 15.08836973 35424,6917.89,95.438,540.74,538.769,0.0
51865.0,STARLINK-3503,PAYLOAD,2022-10-14 10:23:07,15.08844126,0.0001733999999999,53.2165,185.8389,52.125,307.9899,0.00019292,2.784e-05,0.0,0 STARLINK-3503,1 51865U 22022P   22287.43272618  .00002784  00000-0  19292-3 0  9994,2 51865  53.2165 185.8389 0001734  52.1250 307.9899 15.08844126 35575,6917.868,95.437,540.932,538.533,0.0
51865.0,STARLINK-3503,PAYLOAD,2022-10-15 00:41:36,15.08829927,0.0001913,53.2169,183.1623,73.4771,286.6431,0.00010828,1.435e-05,0.0,0 STARLINK-3503,1 51865U 22022P   22288.02889786  .00001435  00000-0  10828-3 0  9998,2 51865  53.2169 183.1623 0001913  73.4771 286.6431 15.08829927 35661,6917.911,95.438,541.1,538.453,0.0
51865.0,STARLINK-3503,PAYLOAD,2022-10-15 10:13:55,15.08831099,0.0001937,53.2168,181.3783,51.5868,308.5297,9.4178e-05,1.211e-05,0.0,0 STARLINK-3503,1 51865U 22022P   22288.42633868  .00001211  00000-0  94178-4 0  9993,2 51865  53.2168 181.3783 0001937  51.5868 308.5297 15.08831099 35721,6917.908,95.438,541.113,538.433,0.0
51865.0,STARLINK-3503,PAYLOAD,2022-10-16 03:43:11,15.08828106,0.0001867,53.216,178.1047,51.9206,308.1954,-0.00012778,-2.321e-05,0.0,0 STARLINK-3503,1 51865U 22022P   22289.15498878 -.00002321  00000-0 -12778-3 0  9994,2 51865  53.2160 178.1047 0001867  51.9206 308.1954 15.08828106 35835,6917.917,95.438,541.073,538.49,0.0
51865.0,STARLINK-3503,PAYLOAD,2022-10-16 10:04:44,15.08821798,0.0001946,53.2163,176.917,52.1747,307.9421,-0.00016805,-2.9600000000000005e-05,0.0,0 STARLINK-3503,1 51865U 22022P   22289.41995663 -.00002960  00000-0 -16805-3 0  9991,2 51865  53.2163 176.9170 0001946  52.1747 307.9421 15.08821798 35872,6917.936,95.439,541.1469999999998,538.455,0.0
51865.0,STARLINK-3503,PAYLOAD,2022-10-16 19:37:02,15.08828075,0.0001911,53.2157,175.1337,50.1503,309.9657,-2.2489e-05,-6.46e-06,0.0,0 STARLINK-3503,1 51865U 22022P   22289.81739171 -.00000646  00000-0 -22489-4 0  9990,2 51865  53.2157 175.1337 0001911  50.1503 309.9657 15.08828075 35936,6917.917,95.438,541.104,538.46,0.0
51865.0,STARLINK-3503,PAYLOAD,2022-10-17 01:58:35,15.08828004,0.0001828,53.216,173.9439,54.4179,305.6983,7.6887e-05,9.35e-06,0.0,0 STARLINK-3503,1 51865U 22022P   22290.08235052  .00000935  00000-0  76887-4 0  9990,2 51865  53.2160 173.9439 0001828  54.4179 305.6983 15.08828004 35973,6917.917,95.438,541.047,538.5169999999998,0.0
51865.0,STARLINK-3503,PAYLOAD,2022-10-17 09:55:30,15.08837722,0.0001895,53.2161,172.4571,53.8427,306.2741,0.00012943,1.772e-05,0.0,0 STARLINK-3503,1 51865U 22022P   22290.41354477  .00001772  00000-0  12943-3 0  9992,2 51865  53.2161 172.4571 0001895  53.8427 306.2741 15.08837722 36021,6917.887,95.438,541.063,538.441,0.0
51865.0,STARLINK-3503,PAYLOAD,2022-10-17 19:27:49,15.0883329,0.000185,53.2161,170.6728,52.7203,307.3958,0.00015442,2.17e-05,0.0,0 STARLINK-3503,1 51865U 22022P   22290.81098832  .00002170  00000-0  15442-3 0  9996,2 51865  53.2161 170.6728 0001850  52.7203 307.3958 15.08833290 36080,6917.901,95.438,541.0459999999998,538.486,0.0
51865.0,STARLINK-3503,PAYLOAD,2022-10-18 01:49:22,15.08832768,0.0001858,53.2161,169.4835,51.9982,308.1178,0.0001659,2.353e-05,0.0,0 STARLINK-3503,1 51865U 22022P   22291.07595044  .00002353  00000-0  16590-3 0  9990,2 51865  53.2161 169.4835 0001858  51.9982 308.1178 15.08832768 36125,6917.901999999999,95.438,541.053,538.482,0.0
51865.0,STARLINK-3503,PAYLOAD,2022-10-19 01:40:09,15.08840311,0.000182,53.2162,165.0235,49.9578,310.1573,0.00011989,1.62e-05,0.0,0 STARLINK-3503,1 51865U 22022P   22292.06955071  .00001620  00000-0  11989-3 0  9993,2 51865  53.2162 165.0235 0001820  49.9578 310.1573 15.08840311 36270,6917.879,95.438,541.003,538.485,0.0
51865.0,STARLINK-3503,PAYLOAD,2022-10-20 01:30:55,15.08843708,0.0001819,53.2163,160.5626,48.0863,312.0284,6.506699999999999e-05,7.48e-06,0.0,0 STARLINK-3503,1 51865U 22022P   22293.06314672  .00000748  00000-0  65067-4 0  9997,2 51865  53.2163 160.5626 0001819  48.0863 312.0284 15.08843708 36420,6917.869000000002,95.437,540.992,538.476,0.0
51865.0,STARLINK-3503,PAYLOAD,2022-10-20 15:49:24,15.08843272,0.0001809,53.2163,157.8861,47.7607,312.3538,1.8835e-05,1.2e-07,0.0,0 STARLINK-3503,1 51865U 22022P   22293.65930727  .00000012  00000-0  18835-4 0  9992,2 51865  53.2163 157.8861 0001809  47.7607 312.3538 15.08843272 36512,6917.87,95.437,540.987,538.484,0.0
51865.0,STARLINK-3503,PAYLOAD,2022-10-21 07:43:15,15.08845571,0.0001841,53.216,154.912,47.4903,312.6245,2.8125e-05,1.6e-06,0.0,0 STARLINK-3503,1 51865U 22022P   22294.32170378  .00000160  00000-0  28125-4 0  9992,2 51865  53.2160 154.9120 0001841  47.4903 312.6245 15.08845571 36610,6917.863,95.437,541.002,538.455,0.0
51865.0,STARLINK-3503,PAYLOAD,2022-10-22 07:34:02,15.08840434,0.0001803,53.2156,150.4511,46.8782,313.2361,9.0362e-06,-1.44e-06,0.0,0 STARLINK-3503,1 51865U 22022P   22295.31530524 -.00000144  00000-0  90362-5 0  9991,2 51865  53.2156 150.4511 0001803  46.8782 313.2361 15.08840434 36761,6917.879,95.438,540.991,538.497,0.0
51865.0,STARLINK-3503,PAYLOAD,2022-10-22 13:55:34,15.08840124,0.0001793,53.2155,149.2614,47.2948,312.8195,2.4961e-05,1.09e-06,0.0,0 STARLINK-3503,1 51865U 22022P   22295.58026473  .00000109  00000-0  24961-4 0  9994,2 51865  53.2155 149.2614 0001793  47.2948 312.8195 15.08840124 36808,6917.88,95.438,540.985,538.505,0.0
51865.0,STARLINK-3503,PAYLOAD,2022-10-22 20:17:06,15.08844487,0.0001835,53.2153,148.0724,48.7999,311.3151,0.00010076,1.316e-05,0.0,0 STARLINK-3503,1 51865U 22022P   22295.84521930  .00001316  00000-0  10076-3 0  9993,2 51865  53.2153 148.0724 0001835  48.7999 311.3151 15.08844487 36840,6917.8669999999975,95.437,541.001,538.462,0.0
51865.0,STARLINK-3503,PAYLOAD,2022-10-23 02:38:39,15.08848222,0.0001863,53.2153,146.8828,49.2438,310.8715,0.00012604,1.719e-05,0.0,0 STARLINK-3503,1 51865U 22022P   22296.11017560  .00001719  00000-0  12604-3 0  9999,2 51865  53.2153 146.8828 0001863  49.2438 310.8715 15.08848222 36881,6917.855,95.437,541.009,538.431,0.0
51865.0,STARLINK-3503,PAYLOAD,2022-10-23 07:24:48,15.08844339,0.0001891,53.2152,145.9908,49.2076,310.908,3.9493e-05,3.4e-06,0.0,0 STARLINK-3503,1 51865U 22022P   22296.30889975  .00000340  00000-0  39493-4 0  9992,2 51865  53.2152 145.9908 0001891  49.2076 310.9080 15.08844339 36913,6917.8669999999975,95.437,541.04,538.424,0.0
51865.0,STARLINK-3503,PAYLOAD,2022-10-23 16:57:07,15.088459699999998,0.000186,53.2153,144.2075,49.4694,310.6459,5.2899e-05,5.54e-06,0.0,0 STARLINK-3503,1 51865U 22022P   22296.70633710  .00000554  00000-0  52899-4 0  9992,2 51865  53.2153 144.2075 0001860  49.4694 310.6459 15.08845970 36970,6917.861999999999,95.437,541.014,538.44,0.0
51865.0,STARLINK-3503,PAYLOAD,2022-10-24 07:15:35,15.0884358,0.0001953,53.2154,141.5308,49.9154,310.2009,8.4049e-05,1.05e-05,0.0,0 STARLINK-3503,1 51865U 22022P   22297.30249605  .00001050  00000-0  84049-4 0  9999,2 51865  53.2154 141.5308 0001953  49.9154 310.2009 15.08843580 37062,6917.869000000002,95.437,541.086,538.383,0.0
